#dP2021  6  9 12  0  0.00000000      96 __u+U ITR00 EXT  IAC
## 2161 302400.00000000   900.00000000 59374 0.5000000000000
+  115   C06C07C08C09C11C12C13C14C16C19C20C21C22C23C24C25C26
+        C27C28C29C30C32C33C34C35C36C37C38C39C40C41C42C43C44
+        C45C46E01E02E03E04E05E07E08E09E11E12E13E14E15E18E19
+        E21E24E25E26E27E30E31E33E36G01G02G03G04G05G06G07G08
+        G09G10G12G13G14G15G16G17G18G19G20G21G22G23G24G25G26
+        G27G28G29G30G31G32J01J02J03R01R02R03R04R05R07R08R09
+        R11R12R13R14R15R16R17R18R19R20R21R22R24  0  0  0  0
++         8  9 14 10  9  8 16  8  8  8  9  9  9  9 10  7  8
++         8  9  9  8  8  8  7  7  8  8  8 11 10  7  8  7 11
++         7  9  7  8  7  5  7  8  7  9  8  7  7  8  8  7  8
++         8  7  7  9  7  8  6  9  9  8  8  6  7  8  7  9  6
++         8  7  8  8  7 10  8  7  8  7  8  9  8  8  7  7  7
++         7  7  9  6  8  9 11  9  8  9  9  8  9  6  9  8 11
++         8  9 10 10  8  7  8  8  6  7  7 10  9  0  0  0  0
%c M  cc GPS ccc cccc cccc cccc cccc ccccc ccccc ccccc ccccc
%c cc cc ccc ccc cccc cccc cccc cccc ccccc ccccc ccccc ccccc
%f  0.0000000  0.000000000  0.00000000000  0.000000000000000
%f  0.0000000  0.000000000  0.00000000000  0.000000000000000
%i    0    0    0    0      0      0      0      0         0
%i    0    0    0    0      0      0      0      0         0
/* IAC                                ULTRA-RAPID PREDICTION
/* S/V CLOCKS ARE ALIGNED TO GNSS TIME                      
/* G:C1WC2W R:C1PC2P E:C1XC5X C:C2IC6I J:C1CC2S             
/* PCV:IGS14_2148 OL/AL:FES2004  NONE     YN ORB:CoN CLK:CoN
*  2021 06 10  9  0  0.00000000
PC06 -25311.241676  30308.054241 -14981.630178    485.983272
PC07 -10299.421248  35301.182198 -19902.609489     89.112614
PC08 -10317.151915  18636.915769  36483.644885   -893.479301
PC09 -11934.880366  30077.595608 -26951.663724    459.098309
PC11 -21768.549679  -1299.034394 -17334.323998    391.288413
PC12  -6233.018927 -14039.463771 -23270.868568    849.722537
PC13   2598.054329  24682.774059  34230.515404    294.376305
PC14 -14914.514562  -9707.287077  21539.043750    916.845762
PC16 -22512.975937  30915.532828 -17862.637487   -889.878328
PC19  15824.078534  -1842.234734 -22882.932725    867.111144
PC20  12116.746865  17833.264409 -17678.090454   -882.132564
PC21   -916.154573 -27860.738637   1618.953420   -936.099003
PC22  10515.057546 -21087.168002 -14970.153303   -950.873954
PC23 -13070.470141  10684.409397 -22213.019206   -931.207717
PC24 -21399.335662 -17137.364003   5151.433892   -886.773243
PC25 -24566.305963  -3440.722580 -12768.954654   -903.256092
PC26  -7199.973175 -19408.541678  18693.639418    894.785242
PC27  -3710.972561  18298.730772  20722.089421    545.937675
PC28 -20608.222214  17191.845447   7637.814300    -64.049300
PC29  25143.122641  -6959.361918   9892.184545    404.136164
PC30  15193.507364   8530.998753  21783.062043    470.165510
PC32   1084.000059  27832.151798  -1552.844907   -926.038466
PC33 -15866.358298   1786.347314  22895.770053   -936.668065
PC34 -15872.183762  -8021.794700 -21524.034126   -653.715823
PC35  20193.079765 -17796.527863  -7311.006996   -240.097703
PC36  24589.748191   4297.969697  12498.442000   -727.228785
PC37   5868.871191  19410.271916 -19157.317475   -877.497655
PC38  -7855.181048  22237.087854  34959.190690    154.347106
PC39 -18824.016489  32481.073684 -19319.771265     31.694973
PC40  -5385.096586  39780.309743 -12624.437046    169.562676
PC41 -10676.031526  20824.183542  15254.362083   -946.845863
PC42 -11880.102585 -18527.489191  17215.650481   -913.483757
PC43 -25139.947525   6379.500683 -10339.441820   -769.799026
PC44   3178.661907 -18566.260409 -20591.298334    232.133601
PC45  12881.406612 -10700.892453  22332.117673    463.360917
PC46  22029.089664  16636.760938  -4187.612139    231.025412
PE01   2118.956379  24498.356161 -16476.681125  -1126.191867
PE02  -2221.171806 -24545.569301  16385.700338    225.098375
PE03   8314.933864 -27336.409440   7768.854658   -440.378475
PE04   7199.990763  18959.235450 -21547.404113   -789.345885
PE05  19193.646337 -19777.113912 -10799.006688   -274.102499
PE07 -18769.563386    757.577956  22884.889605   -548.133505
PE08  -7431.483190 -18616.724996  21792.596938   5988.313679
PE09  18706.771334  -1142.318727 -22905.221424   5638.546646
PE11  29088.102934   2071.648421   5006.631677   5869.480686
PE12  16232.291930  13067.817095  21007.524005   5167.382704
PE13 -29011.214789  -2246.645135  -5456.225448    417.551209
PE14 -17260.147050 -10958.104531 -24426.977034  -1461.127418
PE15 -16332.657643 -12931.571324 -21030.243249    809.598453
PE18  19379.525786  -1798.007446  15610.648821  -1600.208034
PE19 -10021.929548  27263.426043  -5682.144305    298.632340
PE21 -12732.185131  10742.445224 -24468.209066   -669.852522
PE24  20912.389220  10696.548346  18011.096324   -946.966671
PE25  12867.874331 -10548.146704  24487.016459   -536.489649
PE26 -24063.836716  10144.515437  13934.918497   1710.078664
PE27 -20849.404657  -9771.273056 -18595.427713    -51.154272
PE30 -16032.073796 -24861.500494   -888.428968   2875.285583
PE31  16663.965041  24393.318776   1848.259330   -482.062012
PE33  -5949.816751  15983.180694  24193.796381   -469.413599
PE36  24576.016469  -9743.395102 -13306.274953   -218.962718
PG01 -16582.750111 -13606.937453 -16151.905062    662.949461
PG02  -8635.078373  14216.470001  21373.113609   -611.241061
PG03 -12607.311010 -22871.100714   5072.930251   -187.940023
PG04  -7481.086443 -14097.336407  21231.407435   -199.409213
PG05   4283.705761  24712.664611   8304.308010    -44.521121
PG06 -19918.950401   7600.863315  15936.934554     25.211538
PG07 -25550.204056  -7216.302946   4231.156413    174.438190
PG08   1029.043696 -20347.139028 -16884.034815    -24.544423
PG09 -16158.195338  -3258.202340  20773.597936   -350.360788
PG10  14782.544264  -3141.897806 -21740.682629   -139.431644
PG12  10026.389120  24386.053270   3519.934918    -52.992806
PG13 -10310.379617  21309.321207 -12035.191801    143.021303
PG14 -15137.247418   2835.482107 -21651.043936     71.816286
PG15   2083.868333  20507.048853 -16923.069092   -143.398945
PG16   2115.974125 -23040.164861  12374.423395   -338.979427
PG17 -20760.100612  10793.190738 -12142.877825    456.163145
PG18  26124.916425   4972.836986    498.298438    347.382929
PG19 -20549.295587  16094.209464  -4815.214426     11.464475
PG20   6679.827896  24387.567910   8514.053783    521.308085
PG21  -9591.886826 -14530.140361 -19494.276966    124.059543
PG22  -8969.595107 -24705.311876  -4333.416923   -592.192595
PG23  17329.499825   8908.223030 -18093.877169     98.383909
PG24  12163.263247  14885.297689 -18734.469901    125.128322
PG25  16314.828750  16132.662471  13341.240895    153.230316
PG26   8126.277607 -16238.667406  19233.544975     96.528784
PG27  10649.054343 -22600.104763  -8628.503058   -144.752741
PG28 -12213.062179   9507.056834 -21066.139903    557.048917
PG29  14967.931036   4792.139422  21368.868013   -361.719738
PG30 -25175.110687   1862.612651  -8572.063561   -437.174596
PG31  17995.359118  -9216.692597  17373.333454   -122.241099
PG32  20143.508910 -13499.260430 -10520.344407     18.965499
PJ01 -29934.941927  25437.264720  20228.772221   -393.264017
PJ02 -20838.488111  20105.043598 -26112.309551     -0.196307
PJ03 -29520.857663  29585.633346  11230.461030     -7.691084
PR01  -3104.168171  25167.112297  -2678.071024     80.646097
PR02   6649.419079  14461.550460 -19906.228929    481.846551
PR03  11618.381903  -4138.729684 -22273.010589     37.411928
PR04   9819.393708 -20167.683531 -12110.322946     90.641609
PR05   2720.993462 -24890.688513   4833.496730     73.291531
PR07 -11722.731849   4917.254637  22163.563247    -42.380958
PR08  -9891.960760  20179.100103  12144.199069    -59.444481
PR09 -19361.287941 -16665.892608    339.328703     -2.810386
PR11  -7939.892265   7507.529781 -23037.634255    -10.830938
PR12   8195.007530  17537.624584 -16593.698769    235.989023
PR13  19114.340925  16856.001216  -1054.653860    -56.052624
PR14  18883.819991   6089.495401  16032.367041     65.180251
PR15   7679.634044  -7896.136517  23028.200374    103.327752
PR16  -9301.989546 -17637.870239  15809.358779    -16.188653
PR17  24085.738279  -4736.842259   7006.075954    431.411246
PR18  20492.371331 -11445.883009  -9912.817932     79.524873
PR19   7264.118669 -12069.682120 -21272.332987   -147.179864
PR20 -13607.888131  -5575.128509 -20854.064248    -50.626996
PR21 -24254.292949   5290.609607  -5817.826105   -215.469286
PR22 -20033.040568  11570.797699  10833.283273   -116.960396
PR24  14427.391002   5409.513065  20341.687646     45.959055
EOF
